IRIDIUM 112             
1 41925U 17003J   23241.81544270  .00000300  00000+0  99993-4 0  9990
2 41925  86.4024 155.5993 0002052  88.1092 272.0339 14.34215529346736
IRIDIUM 111             
1 41926U 17003K   23241.87252830  .00000302  00000+0  10083-3 0  9999
2 41926  86.4030 155.6236 0002495  86.8608 273.2874 14.34218764346724
IRIDIUM 113             
1 42803U 17039A   23241.85249022  .00000307  00000+0  10259-3 0  9990
2 42803  86.3988  29.3630 0002291  97.1771 262.9686 14.34219449324650
IRIDIUM 123             
1 42804U 17039B   23241.61489565  .00000103  00000+0  29681-4 0  9997
2 42804  86.3928  60.9791 0002106  99.7136 260.4298 14.34216778323385
IRIDIUM 120             
1 42805U 17039C   23241.77638175  .00000053  00000+0  11891-4 0  9996
2 42805  86.3978  29.3099 0002229  93.1920 266.9531 14.34218145324636
IRIDIUM 115             
1 42806U 17039D   23241.76924031  .00000496  00000+0  14132-3 0  9996
2 42806  86.4514  29.2965 0002486  97.5257 262.6227 14.43292568326796
IRIDIUM 118             
1 42807U 17039E   23241.57684750  .00000113  00000+0  33340-4 0  9996
2 42807  86.3927  60.9976 0002087  91.5581 268.5854 14.34216154323378
IRIDIUM 117             
1 42808U 17039F   23241.52609177  .00000111  00000+0  32408-4 0  9994
2 42808  86.3926  60.9855 0002175  92.6426 267.5019 14.34216103323390
